GLOBALSTAR M075         
1 37192U 10054E   25009.87637387 -.00000075  00000+0  16256-3 0  9992
2 37192  51.9963 303.5595 0000730  60.1932   8.0743 12.62271510655856
GLOBALSTAR M073         
1 37193U 10054F   25009.89030861 -.00000069  00000+0  19488-3 0  9992
2 37193  52.0031 217.2150 0001065  75.1707  55.9409 12.62262376657842
GLOBALSTAR M083         
1 37739U 11033A   25009.82827750 -.00000080  00000+0  13146-3 0  9998
2 37739  51.9835 166.3494 0000857 104.2621  45.3023 12.62270574626851
GLOBALSTAR M088         
1 37740U 11033B   25010.16883943 -.00000091  00000+0  70642-4 0  9992
2 37740  51.9746  70.9369 0000465 138.1152 240.1066 12.62267245622731
GLOBALSTAR M091         
1 37741U 11033C   25010.10727442 -.00000093  00000+0  59154-4 0  9995
2 37741  52.0015  34.3978 0000296 179.6384 217.9656 12.62272553623480
GLOBALSTAR M085         
1 37742U 11033D   25010.10306213 -.00000090  00000+0  76673-4 0  9997
2 37742  51.9894 345.5886 0000132  51.5266  27.3635 12.62263684624223
GLOBALSTAR M081         
1 37743U 11033E   25009.95748194 -.00000089  00000+0  81495-4 0  9993
2 37743  51.9981 348.7192 0000338   8.2662   9.9058 12.62275131623867
GLOBALSTAR M089         
1 37744U 11033F   25010.34273005 -.00000078  00000+0  14607-3 0  9991
2 37744  51.9943 301.8072 0000877  53.7591  94.8728 12.62264872625002
